{"type": "FeatureCollection", "features": [ {"type": "Feature", "properties": {"norad_id": 30396, "name": "FENGYUN 1C DEB", "group": "fengyun-1c-debris", "lat": 48.71250889853586, "lon": -12.089850189361972, "alt_km": 886.6839429193342, "timestamp": "2025-12-19T08:58:49.614348+00:00", "meta": {"OBJECT_NAME": "FENGYUN 1C DEB", "OBJECT_ID": "1999-025ADK", "EPOCH": "2025-12-18T22:39:31.534272", "MEAN_MOTION": 13.87170719, "ECCENTRICITY": 0.01351775, "INCLINATION": 98.2238, "RA_OF_ASC_NODE": 357.0104, "ARG_OF_PERICENTER": 112.677, "MEAN_ANOMALY": 311.6483, "EPHEMERIS_TYPE": 0, "CLASSIFICATION_TYPE": "U", "NORAD_CAT_ID": 30396, "ELEMENT_SET_NO": 999, "REV_AT_EPOCH": 95665, "BSTAR": 0.00010375282, "MEAN_MOTION_DOT": 9.6e-07, "MEAN_MOTION_DDOT": 0}, "tle": {"line1": "1 30396U 99025ADK 25352.94411498  .00000096  00000+0  10375-3 0  9996", "line2": "2 30396  98.2238 357.0104 0135177 112.6770 311.6483 13.87170719956654"}}, "geometry": {"type": "Point", "coordinates": [-12.089850189361972, 48.71250889853586]}}, {"type": "Feature", "properties": {"norad_id": 30397, "name": "FENGYUN 1C DEB", "group": "fengyun-1c-debris", "lat": -30.22910437007107, "lon": -43.91135001252942, "alt_km": 982.75328054083, "timestamp": "2025-12-19T08:58:49.614358+00:00", "meta": {"OBJECT_NAME": "FENGYUN 1C DEB", "OBJECT_ID": "1999-025ADL", "EPOCH": "2025-12-18T22:14:56.295744", "MEAN_MOTION": 13.98606163, "ECCENTRICITY": 0.01496047, "INCLINATION": 98.405, "RA_OF_ASC_NODE": 140.6207, "ARG_OF_PERICENTER": 75.2174, "MEAN_ANOMALY": 43.9683, "EPHEMERIS_TYPE": 0, "CLASSIFICATION_TYPE": "U", "NORAD_CAT_ID": 30397, "ELEMENT_SET_NO": 999, "REV_AT_EPOCH": 95851, "BSTAR": 0.00086992731, "MEAN_MOTION_DOT": 1.336e-05, "MEAN_MOTION_DDOT": 0}, "tle": {"line1": "1 30397U 99025ADL 25352.92704046  .00001336  00000+0  86993-3 0  9996", "line2": "2 30397  98.4050 140.6207 0149604  75.2174  43.9683 13.98606163958514"}}, "geometry": {"type": "Point", "coordinates": [-43.91135001252942, -30.22910437007107]}}, {"type": "Feature", "properties": {"norad_id": 30398, "name": "FENGYUN 1C DEB", "group": "fengyun-1c-debris", "lat": 29.024167283120175, "lon": 75.5141912563618, "alt_km": 1044.2447691245861, "timestamp": "2025-12-19T08:58:49.614368+00:00", "meta": {"OBJECT_NAME": "FENGYUN 1C DEB", "OBJECT_ID": "1999-025ADM", "EPOCH": "2025-12-18T16:41:34.180800", "MEAN_MOTION": 13.78703935, "ECCENTRICITY": 0.01725817, "INCLINATION": 99.7143, "RA_OF_ASC_NODE": 249.3652, "ARG_OF_PERICENTER": 280.5056, "MEAN_ANOMALY": 104.8727, "EPHEMERIS_TYPE": 0, "CLASSIFICATION_TYPE": "U", "NORAD_CAT_ID": 30398, "ELEMENT_SET_NO": 999, "REV_AT_EPOCH": 94839, "BSTAR": 0.0003677505, "MEAN_MOTION_DOT": 3.69e-06, "MEAN_MOTION_DDOT": 0}, "tle": {"line1": "1 30398U 99025ADM 25352.69553450  .00000369  00000+0  36775-3 0  9990", "line2": "2 30398  99.7143 249.3652 0172581 280.5056 104.8727 13.78703935948397"}}, "geometry": {"type": "Point", "coordinates": [75.5141912563618, 29.024167283120175]}}, {"type": "Feature", "properties": {"norad_id": 30400, "name": "FENGYUN 1C DEB", "group": "fengyun-1c-debris", "lat": 5.932618220898478, "lon": -79.94096953981301, "alt_km": 750.8486044221972, "timestamp": "2025-12-19T08:58:49.614378+00:00", "meta": {"OBJECT_NAME": "FENGYUN 1C DEB", "OBJECT_ID": "1999-025ADP", "EPOCH": "2025-12-18T07:59:10.762080", "MEAN_MOTION": 14.10070191, "ECCENTRICITY": 0.02265588, "INCLINATION": 99.1567, "RA_OF_ASC_NODE": 279.9588, "ARG_OF_PERICENTER": 320.3492, "MEAN_ANOMALY": 160.2124, "EPHEMERIS_TYPE": 0, "CLASSIFICATION_TYPE": "U", "NORAD_CAT_ID": 30400, "ELEMENT_SET_NO": 999, "REV_AT_EPOCH": 95593, "BSTAR": 0.0033870553, "MEAN_MOTION_DOT": 7.555e-05, "MEAN_MOTION_DDOT": 0}, "tle": {"line1": "1 30400U 99025ADP 25352.33276345  .00007555  00000+0  33871-2 0  9997", "line2": "2 30400  99.1567 279.9588 0226558 320.3492 160.2124 14.10070191955936"}}, "geometry": {"type": "Point", "coordinates": [-79.94096953981301, 5.932618220898478]}}, {"type": "Feature", "properties": {"norad_id": 30401, "name": "FENGYUN 1C DEB", "group": "fengyun-1c-debris", "lat": 79.90526323575806, "lon": 112.66412250287799, "alt_km": 715.6328415181733, "timestamp": "2025-12-19T08:58:49.614388+00:00", "meta": {"OBJECT_NAME": "FENGYUN 1C DEB", "OBJECT_ID": "1999-025ADQ", "EPOCH": "2025-12-18T02:16:24.686688", "MEAN_MOTION": 14.27995493, "ECCENTRICITY": 0.01080314, "INCLINATION": 98.9471, "RA_OF_ASC_NODE": 229.1156, "ARG_OF_PERICENTER": 112.0778, "MEAN_ANOMALY": 249.1915, "EPHEMERIS_TYPE": 0, "CLASSIFICATION_TYPE": "U", "NORAD_CAT_ID": 30401, "ELEMENT_SET_NO": 999, "REV_AT_EPOCH": 98380, "BSTAR": 0.00011793737, "MEAN_MOTION_DOT": 2.66e-06, "MEAN_MOTION_DDOT": 0}, "tle": {"line1": "1 30401U 99025ADQ 25352.09473017  .00000266  00000+0  11794-3 0  9999", "line2": "2 30401  98.9471 229.1156 0108031 112.0778 249.1915 14.27995493983805"}}, "geometry": {"type": "Point", "coordinates": [112.66412250287799, 79.90526323575806]}}, {"type": "Feature", "properties": {"norad_id": 30403, "name": "FENGYUN 1C DEB", "group": "fengyun-1c-debris", "lat": 65.07675259764167, "lon": -87.94339254468309, "alt_km": 831.390674683159, "timestamp": "2025-12-19T08:58:49.614398+00:00", "meta": {"OBJECT_NAME": "FENGYUN 1C DEB", "OBJECT_ID": "1999-025ADS", "EPOCH": "2025-12-18T22:19:06.129120", "MEAN_MOTION": 14.2157948, "ECCENTRICITY": 0.00744298, "INCLINATION": 99.06, "RA_OF_ASC_NODE": 71.518, "ARG_OF_PERICENTER": 4.7661, "MEAN_ANOMALY": 355.4208, "EPHEMERIS_TYPE": 0, "CLASSIFICATION_TYPE": "U", "NORAD_CAT_ID": 30403, "ELEMENT_SET_NO": 999, "REV_AT_EPOCH": 96894, "BSTAR": 0.0014619287, "MEAN_MOTION_DOT": 3.25e-05, "MEAN_MOTION_DDOT": 0}, "tle": {"line1": "1 30403U 99025ADS 25352.92993205  .00003250  00000+0  14619-2 0  9993", "line2": "2 30403  99.0600  71.5180 0074429   4.7661 355.4208 14.21579480968942"}}, "geometry": {"type": "Point", "coordinates": [-87.94339254468309, 65.07675259764167]}}, {"type": "Feature", "properties": {"norad_id": 30404, "name": "FENGYUN 1C DEB", "group": "fengyun-1c-debris", "lat": -76.22567773571465, "lon": -140.12096806093433, "alt_km": 1348.0375984977309, "timestamp": "2025-12-19T08:58:49.614408+00:00", "meta": {"OBJECT_NAME": "FENGYUN 1C DEB", "OBJECT_ID": "1999-025ADT", "EPOCH": "2025-12-17T23:19:14.979360", "MEAN_MOTION": 13.34352849, "ECCENTRICITY": 0.03760541, "INCLINATION": 99.8325, "RA_OF_ASC_NODE": 83.5521, "ARG_OF_PERICENTER": 124.0977, "MEAN_ANOMALY": 239.6433, "EPHEMERIS_TYPE": 0, "CLASSIFICATION_TYPE": "U", "NORAD_CAT_ID": 30404, "ELEMENT_SET_NO": 999, "REV_AT_EPOCH": 58106, "BSTAR": 0.00066841715, "MEAN_MOTION_DOT": 4.58e-06, "MEAN_MOTION_DDOT": 0}, "tle": {"line1": "1 30404U 99025ADT 25351.97170115  .00000458  00000+0  66842-3 0  9998", "line2": "2 30404  99.8325  83.5521 0376054 124.0977 239.6433 13.34352849581060"}}, "geometry": {"type": "Point", "coordinates": [-140.12096806093433, -76.22567773571465]}}, {"type": "Feature", "properties": {"norad_id": 30405, "name": "FENGYUN 1C DEB", "group": "fengyun-1c-debris", "lat": 72.3120417321554, "lon": -63.54443491276322, "alt_km": 756.2185336869388, "timestamp": "2025-12-19T08:58:49.614418+00:00", "meta": {"OBJECT_NAME": "FENGYUN 1C DEB", "OBJECT_ID": "1999-025ADU", "EPOCH": "2025-12-18T22:42:18.546336", "MEAN_MOTION": 14.28966929, "ECCENTRICITY": 0.00511719, "INCLINATION": 98.7942, "RA_OF_ASC_NODE": 86.9841, "ARG_OF_PERICENTER": 136.2072, "MEAN_ANOMALY": 288.2451, "EPHEMERIS_TYPE": 0, "CLASSIFICATION_TYPE": "U", "NORAD_CAT_ID": 30405, "ELEMENT_SET_NO": 999, "REV_AT_EPOCH": 97484, "BSTAR": 0.0012405254, "MEAN_MOTION_DOT": 3.137e-05, "MEAN_MOTION_DDOT": 0}, "tle": {"line1": "1 30405U 99025ADU 25352.94604799  .00003137  00000+0  12405-2 0  9999", "line2": "2 30405  98.7942  86.9841 0051171 136.2072 288.2451 14.28966929974843"}}, "geometry": {"type": "Point", "coordinates": [-63.54443491276322, 72.3120417321554]}}, {"type": "Feature", "properties": {"norad_id": 30406, "name": "FENGYUN 1C DEB", "group": "fengyun-1c-debris", "lat": -22.192011006039152, "lon": 59.70255399858522, "alt_km": 1202.8848427322228, "timestamp": "2025-12-19T08:58:49.614428+00:00", "meta": {"OBJECT_NAME": "FENGYUN 1C DEB", "OBJECT_ID": "1999-025ADV", "EPOCH": "2025-12-18T23:27:43.259328", "MEAN_MOTION": 13.59237432, "ECCENTRICITY": 0.02831425, "INCLINATION": 98.6211, "RA_OF_ASC_NODE": 242.9011, "ARG_OF_PERICENTER": 343.7146, "MEAN_ANOMALY": 81.1059, "EPHEMERIS_TYPE": 0, "CLASSIFICATION_TYPE": "U", "NORAD_CAT_ID": 30406, "ELEMENT_SET_NO": 999, "REV_AT_EPOCH": 93251, "BSTAR": 0.0017950659, "MEAN_MOTION_DOT": 1.684e-05, "MEAN_MOTION_DDOT": 0}, "tle": {"line1": "1 30406U 99025ADV 25352.97758402  .00001684  00000+0  17951-2 0  9990", "line2": "2 30406  98.6211 242.9011 0283142 343.7146  81.1059 13.59237432932512"}}, "geometry": {"type": "Point", "coordinates": [59.70255399858522, -22.192011006039152]}}, {"type": "Feature", "properties": {"norad_id": 30409, "name": "FENGYUN 1C DEB", "group": "fengyun-1c-debris", "lat": -71.56761154559382, "lon": 6.8823714404009575, "alt_km": 826.509444540301, "timestamp": "2025-12-19T08:58:49.614438+00:00", "meta": {"OBJECT_NAME": "FENGYUN 1C DEB", "OBJECT_ID": "1999-025ADY", "EPOCH": "2025-12-18T23:20:01.391712", "MEAN_MOTION": 14.03753465, "ECCENTRICITY": 0.01677659, "INCLINATION": 98.4734, "RA_OF_ASC_NODE": 339.9384, "ARG_OF_PERICENTER": 348.0576, "MEAN_ANOMALY": 69.9586, "EPHEMERIS_TYPE": 0, "CLASSIFICATION_TYPE": "U", "NORAD_CAT_ID": 30409, "ELEMENT_SET_NO": 999, "REV_AT_EPOCH": 96517, "BSTAR": 0.00075142764, "MEAN_MOTION_DOT": 1.299e-05, "MEAN_MOTION_DDOT": 0}, "tle": {"line1": "1 30409U 99025ADY 25352.97223833  .00001299  00000+0  75143-3 0  9998", "line2": "2 30409  98.4734 339.9384 0167765 348.0576  69.9586 14.03753465965176"}}, "geometry": {"type": "Point", "coordinates": [6.8823714404009575, -71.56761154559382]}}]}